{
  "type": "FeatureCollection",
  "features": [
    {
      "type": "Feature",
      "properties": {
        "norad_id": 28051,
        "name": "IRS-P6 (RESOURCESAT-1)",
        "group": "resource",
        "lat": 56.76868456511539,
        "lon": -135.3381244071816,
        "alt_km": 732.4708507878113,
        "timestamp": "2025-12-17T17:50:18.908421+00:00",
        "meta_object_name": "IRS-P6 (RESOURCESAT-1)",
        "meta_object_id": "2003-046A",
        "meta_epoch": "2025-12-17T08:57:27.116064",
        "meta_mean_motion": 14.36077063,
        "meta_eccentricity": 0.00643826,
        "meta_inclination": 98.2179,
        "meta_ra_of_asc_node": 31.566,
        "meta_arg_of_pericenter": 166.8177,
        "meta_mean_anomaly": 203.9694,
        "meta_ephemeris_type": 0,
        "meta_classification_type": "U",
        "meta_norad_cat_id": 28051,
        "meta_element_set_no": 999,
        "meta_rev_at_epoch": 15443,
        "meta_bstar": 6.8898413e-05,
        "meta_mean_motion_dot": 1.64e-06,
        "meta_mean_motion_ddot": 0,
        "tle_line1": "1 28051U 03046A   25351.37323051  .00000164  00000+0  68898-4 0  9992",
        "tle_line2": "2 28051  98.2179  31.5660 0064382 166.8177 203.9694 14.36077063154431"
      },
      "geometry": {
        "type": "Point",
        "coordinates": [
          -135.3381244071816,
          56.76868456511539
        ]
      }
    },
    {
      "type": "Feature",
      "properties": {
        "norad_id": 28220,
        "name": "SHIYAN-1 (SY-1)",
        "group": "resource",
        "lat": -33.20870540958631,
        "lon": -131.6335258329811,
        "alt_km": 487.35944933530936,
        "timestamp": "2025-12-17T17:50:18.908432+00:00",
        "meta_object_name": "SHIYAN-1 (SY-1)",
        "meta_object_id": "2004-012A",
        "meta_epoch": "2025-12-17T04:20:08.374272",
        "meta_mean_motion": 15.28261484,
        "meta_eccentricity": 0.00053626,
        "meta_inclination": 97.8938,
        "meta_ra_of_asc_node": 52.9816,
        "meta_arg_of_pericenter": 308.0316,
        "meta_mean_anomaly": 52.0437,
        "meta_ephemeris_type": 0,
        "meta_classification_type": "U",
        "meta_norad_cat_id": 28220,
        "meta_element_set_no": 999,
        "meta_rev_at_epoch": 18324,
        "meta_bstar": 0.00041405931,
        "meta_mean_motion_dot": 0.00011329,
        "meta_mean_motion_ddot": 0,
        "tle_line1": "1 28220U 04012A   25351.18065248  .00011329  00000+0  41406-3 0  9994",
        "tle_line2": "2 28220  97.8938  52.9816 0005362 308.0316  52.0437 15.28261484183248"
      },
      "geometry": {
        "type": "Point",
        "coordinates": [
          -131.6335258329811,
          -33.20870540958631
        ]
      }
    },
    {
      "type": "Feature",
      "properties": {
        "norad_id": 28376,
        "name": "AURA",
        "group": "resource",
        "lat": 61.644092194205435,
        "lon": 137.72329042687642,
        "alt_km": 683.2260048980097,
        "timestamp": "2025-12-17T17:50:18.908442+00:00",
        "meta_object_name": "AURA",
        "meta_object_id": "2004-026A",
        "meta_epoch": "2025-12-17T07:26:30.957792",
        "meta_mean_motion": 14.60957539,
        "meta_eccentricity": 0.00013213,
        "meta_inclination": 98.3189,
        "meta_ra_of_asc_node": 301.5579,
        "meta_arg_of_pericenter": 93.3534,
        "meta_mean_anomaly": 266.7818,
        "meta_ephemeris_type": 0,
        "meta_classification_type": "U",
        "meta_norad_cat_id": 28376,
        "meta_element_set_no": 999,
        "meta_rev_at_epoch": 13965,
        "meta_bstar": 0.00019475252,
        "meta_mean_motion_dot": 9.06e-06,
        "meta_mean_motion_ddot": 0,
        "tle_line1": "1 28376U 04026A   25351.31008053  .00000906  00000+0  19475-3 0  9997",
        "tle_line2": "2 28376  98.3189 301.5579 0001321  93.3534 266.7818 14.60957539139651"
      },
      "geometry": {
        "type": "Point",
        "coordinates": [
          137.72329042687642,
          61.644092194205435
        ]
      }
    },
    {
      "type": "Feature",
      "properties": {
        "norad_id": 28649,
        "name": "IRS-P5 (CARTOSAT-1)",
        "group": "resource",
        "lat": 39.75757964531025,
        "lon": -155.73125557762498,
        "alt_km": 593.6575113395711,
        "timestamp": "2025-12-17T17:50:18.908453+00:00",
        "meta_object_name": "IRS-P5 (CARTOSAT-1)",
        "meta_object_id": "2005-017A",
        "meta_epoch": "2025-12-17T07:32:45.906144",
        "meta_mean_motion": 14.90420475,
        "meta_eccentricity": 9.363e-05,
        "meta_inclination": 97.549,
        "meta_ra_of_asc_node": 17.525,
        "meta_arg_of_pericenter": 45.3995,
        "meta_mean_anomaly": 314.73,
        "meta_ephemeris_type": 0,
        "meta_classification_type": "U",
        "meta_norad_cat_id": 28649,
        "meta_element_set_no": 999,
        "meta_rev_at_epoch": 11672,
        "meta_bstar": 0.0001486043,
        "meta_mean_motion_dot": 1.396e-05,
        "meta_mean_motion_ddot": 0,
        "tle_line1": "1 28649U 05017A   25351.31442021  .00001396  00000+0  14860-3 0  9995",
        "tle_line2": "2 28649  97.5490  17.5250 0000936  45.3995 314.7300 14.90420475116729"
      },
      "geometry": {
        "type": "Point",
        "coordinates": [
          -155.73125557762498,
          39.75757964531025
        ]
      }
    },
    {
      "type": "Feature",
      "properties": {
        "norad_id": 28893,
        "name": "SINAH 1",
        "group": "resource",
        "lat": 17.201529200417806,
        "lon": 117.73603008296958,
        "alt_km": 683.6660629136495,
        "timestamp": "2025-12-17T17:50:18.908464+00:00",
        "meta_object_name": "SINAH 1",
        "meta_object_id": "2005-043D",
        "meta_epoch": "2025-12-17T07:55:01.771968",
        "meta_mean_motion": 14.63967545,
        "meta_eccentricity": 0.0015534,
        "meta_inclination": 98.2606,
        "meta_ra_of_asc_node": 119.8994,
        "meta_arg_of_pericenter": 123.5157,
        "meta_mean_anomaly": 236.7532,
        "meta_ephemeris_type": 0,
        "meta_classification_type": "U",
        "meta_norad_cat_id": 28893,
        "meta_element_set_no": 999,
        "meta_rev_at_epoch": 7391,
        "meta_bstar": 8.0162732e-05,
        "meta_mean_motion_dot": 3.71e-06,
        "meta_mean_motion_ddot": 0,
        "tle_line1": "1 28893U 05043D   25351.32988162  .00000371  00000+0  80163-4 0  9999",
        "tle_line2": "2 28893  98.2606 119.8994 0015534 123.5157 236.7532 14.63967545 73914"
      },
      "geometry": {
        "type": "Point",
        "coordinates": [
          117.73603008296958,
          17.201529200417806
        ]
      }
    },
    {
      "type": "Feature",
      "properties": {
        "norad_id": 29079,
        "name": "EROS B",
        "group": "resource",
        "lat": 61.63392268327421,
        "lon": -57.614781208827424,
        "alt_km": 355.3994889834412,
        "timestamp": "2025-12-17T17:50:18.908475+00:00",
        "meta_object_name": "EROS B",
        "meta_object_id": "2006-014A",
        "meta_epoch": "2025-12-17T06:37:50.590272",
        "meta_mean_motion": 15.69707885,
        "meta_eccentricity": 0.00029918,
        "meta_inclination": 97.3463,
        "meta_ra_of_asc_node": 108.0703,
        "meta_arg_of_pericenter": 309.8415,
        "meta_mean_anomaly": 50.2584,
        "meta_ephemeris_type": 0,
        "meta_classification_type": "U",
        "meta_norad_cat_id": 29079,
        "meta_element_set_no": 999,
        "meta_rev_at_epoch": 9151,
        "meta_bstar": 0.0012492635,
        "meta_mean_motion_dot": 0.00150424,
        "meta_mean_motion_ddot": 0,
        "tle_line1": "1 29079U 06014A   25351.27627998  .00150424  00000+0  12493-2 0  9990",
        "tle_line2": "2 29079  97.3463 108.0703 0002991 309.8415  50.2584 15.69707885 91517"
      },
      "geometry": {
        "type": "Point",
        "coordinates": [
          -57.614781208827424,
          61.63392268327421
        ]
      }
    },
    {
      "type": "Feature",
      "properties": {
        "norad_id": 29228,
        "name": "RESURS-DK 1",
        "group": "resource",
        "lat": 68.65665109326365,
        "lon": -160.39359323718372,
        "alt_km": 526.6567411559436,
        "timestamp": "2025-12-17T17:50:18.908485+00:00",
        "meta_object_name": "RESURS-DK 1",
        "meta_object_id": "2006-021A",
        "meta_epoch": "2025-12-17T07:53:01.900608",
        "meta_mean_motion": 15.12187613,
        "meta_eccentricity": 0.00069378,
        "meta_inclination": 69.9337,
        "meta_ra_of_asc_node": 89.9796,
        "meta_arg_of_pericenter": 255.5411,
        "meta_mean_anomaly": 104.4985,
        "meta_ephemeris_type": 0,
        "meta_classification_type": "U",
        "meta_norad_cat_id": 29228,
        "meta_element_set_no": 999,
        "meta_rev_at_epoch": 7507,
        "meta_bstar": 0.00014104064,
        "meta_mean_motion_dot": 2.334e-05,
        "meta_mean_motion_ddot": 0,
        "tle_line1": "1 29228U 06021A   25351.32849422  .00002334  00000+0  14104-3 0  9996",
        "tle_line2": "2 29228  69.9337  89.9796 0006937 255.5411 104.4985 15.12187613 75073"
      },
      "geometry": {
        "type": "Point",
        "coordinates": [
          -160.39359323718372,
          68.65665109326365
        ]
      }
    }
  ]
}